{
  "links" : {
    "next" : "https://api.nasa.gov/neo/rest/v1/feed?start_date=1997-05-09&end_date=1997-05-09&detailed=true&api_key=t0TVs3DtDT2H8Oy2Zy8m2eVrNsAVKAexjcZXUckd",
    "prev" : "https://api.nasa.gov/neo/rest/v1/feed?start_date=1997-05-07&end_date=1997-05-07&detailed=true&api_key=t0TVs3DtDT2H8Oy2Zy8m2eVrNsAVKAexjcZXUckd",
    "self" : "https://api.nasa.gov/neo/rest/v1/feed?start_date=1997-05-08&end_date=1997-05-08&detailed=true&api_key=t0TVs3DtDT2H8Oy2Zy8m2eVrNsAVKAexjcZXUckd"
  },
  "element_count" : 3,
  "near_earth_objects" : {
    "1997-05-08" : [ {
      "links" : {
        "self" : "https://api.nasa.gov/neo/rest/v1/neo/2035396?api_key=t0TVs3DtDT2H8Oy2Zy8m2eVrNsAVKAexjcZXUckd"
      },
      "neo_reference_id" : "2035396",
      "name" : "35396 (1997 XF11)",
      "nasa_jpl_url" : "http://ssd.jpl.nasa.gov/sbdb.cgi?sstr=2035396",
      "absolute_magnitude_h" : 16.9,
      "estimated_diameter" : {
        "kilometers" : {
          "estimated_diameter_min" : 1.1080388213,
          "estimated_diameter_max" : 2.4776501261
        },
        "meters" : {
          "estimated_diameter_min" : 1108.0388212642,
          "estimated_diameter_max" : 2477.6501260554
        },
        "miles" : {
          "estimated_diameter_min" : 0.6885031904,
          "estimated_diameter_max" : 1.5395399365
        },
        "feet" : {
          "estimated_diameter_min" : 3635.2980863563,
          "estimated_diameter_max" : 8128.7736395675
        }
      },
      "is_potentially_hazardous_asteroid" : true,
      "close_approach_data" : [ {
        "close_approach_date" : "1997-05-08",
        "epoch_date_close_approach" : 863074800000,
        "relative_velocity" : {
          "kilometers_per_second" : "18.525808002",
          "kilometers_per_hour" : "66692.9088072882",
          "miles_per_hour" : "41440.3799197286"
        },
        "miss_distance" : {
          "astronomical" : "0.1555087624",
          "lunar" : "60.4929046631",
          "kilometers" : "23263780",
          "miles" : "14455442"
        },
        "orbiting_body" : "Earth"
      } ],
      "orbital_data" : {
        "orbit_id" : "271",
        "orbit_determination_date" : "2017-04-06 09:29:18",
        "orbit_uncertainty" : "0",
        "minimum_orbit_intersection" : ".000589605",
        "jupiter_tisserand_invariant" : "4.526",
        "epoch_osculation" : "2458000.5",
        "eccentricity" : ".4838860272644417",
        "semi_major_axis" : "1.442740827807951",
        "inclination" : "4.098502713805458",
        "ascending_node_longitude" : "213.7557110065767",
        "orbital_period" : "632.9667687674583",
        "perihelion_distance" : ".7446187002677496",
        "perihelion_argument" : "102.9185319595481",
        "aphelion_distance" : "2.140862955348152",
        "perihelion_time" : "2458223.669851975816",
        "mean_anomaly" : "233.0720937092198",
        "mean_motion" : ".568750237395572",
        "equinox" : "J2000"
      }
    }, {
      "links" : {
        "self" : "https://api.nasa.gov/neo/rest/v1/neo/3512347?api_key=t0TVs3DtDT2H8Oy2Zy8m2eVrNsAVKAexjcZXUckd"
      },
      "neo_reference_id" : "3512347",
      "name" : "(2010 FC6)",
      "nasa_jpl_url" : "http://ssd.jpl.nasa.gov/sbdb.cgi?sstr=3512347",
      "absolute_magnitude_h" : 20.2,
      "estimated_diameter" : {
        "kilometers" : {
          "estimated_diameter_min" : 0.2424124811,
          "estimated_diameter_max" : 0.5420507863
        },
        "meters" : {
          "estimated_diameter_min" : 242.4124811008,
          "estimated_diameter_max" : 542.0507863358
        },
        "miles" : {
          "estimated_diameter_min" : 0.1506280858,
          "estimated_diameter_max" : 0.3368146392
        },
        "feet" : {
          "estimated_diameter_min" : 795.3165644948,
          "estimated_diameter_max" : 1778.3819018419
        }
      },
      "is_potentially_hazardous_asteroid" : false,
      "close_approach_data" : [ {
        "close_approach_date" : "1997-05-08",
        "epoch_date_close_approach" : 863074800000,
        "relative_velocity" : {
          "kilometers_per_second" : "20.1799263374",
          "kilometers_per_hour" : "72647.7348144604",
          "miles_per_hour" : "45140.4772240184"
        },
        "miss_distance" : {
          "astronomical" : "0.4915828292",
          "lunar" : "191.2257232666",
          "kilometers" : "73539744",
          "miles" : "45695480"
        },
        "orbiting_body" : "Earth"
      } ],
      "orbital_data" : {
        "orbit_id" : "20",
        "orbit_determination_date" : "2017-04-06 08:58:05",
        "orbit_uncertainty" : "1",
        "minimum_orbit_intersection" : ".435521",
        "jupiter_tisserand_invariant" : "5.580",
        "epoch_osculation" : "2458000.5",
        "eccentricity" : ".4676099680807912",
        "semi_major_axis" : "1.063812708612923",
        "inclination" : "30.43032718887023",
        "ascending_node_longitude" : "181.3471933661561",
        "orbital_period" : "400.7709077045405",
        "perihelion_distance" : ".5663632818944941",
        "perihelion_argument" : "179.2830981966037",
        "aphelion_distance" : "1.561262135331352",
        "perihelion_time" : "2457865.210362501720",
        "mean_anomaly" : "121.5264595385425",
        "mean_motion" : ".8982687941645755",
        "equinox" : "J2000"
      }
    }, {
      "links" : {
        "self" : "https://api.nasa.gov/neo/rest/v1/neo/3516489?api_key=t0TVs3DtDT2H8Oy2Zy8m2eVrNsAVKAexjcZXUckd"
      },
      "neo_reference_id" : "3516489",
      "name" : "(2010 GP67)",
      "nasa_jpl_url" : "http://ssd.jpl.nasa.gov/sbdb.cgi?sstr=3516489",
      "absolute_magnitude_h" : 22.4,
      "estimated_diameter" : {
        "kilometers" : {
          "estimated_diameter_min" : 0.0880146521,
          "estimated_diameter_max" : 0.1968067451
        },
        "meters" : {
          "estimated_diameter_min" : 88.0146520901,
          "estimated_diameter_max" : 196.8067450894
        },
        "miles" : {
          "estimated_diameter_min" : 0.0546897524,
          "estimated_diameter_max" : 0.122290004
        },
        "feet" : {
          "estimated_diameter_min" : 288.7619911632,
          "estimated_diameter_max" : 645.6914415591
        }
      },
      "is_potentially_hazardous_asteroid" : false,
      "close_approach_data" : [ {
        "close_approach_date" : "1997-05-08",
        "epoch_date_close_approach" : 863074800000,
        "relative_velocity" : {
          "kilometers_per_second" : "8.4201817322",
          "kilometers_per_hour" : "30312.6542359318",
          "miles_per_hour" : "18835.1045167655"
        },
        "miss_distance" : {
          "astronomical" : "0.2440358634",
          "lunar" : "94.9299545288",
          "kilometers" : "36507248",
          "miles" : "22684552"
        },
        "orbiting_body" : "Earth"
      } ],
      "orbital_data" : {
        "orbit_id" : "14",
        "orbit_determination_date" : "2017-08-29 06:19:11",
        "orbit_uncertainty" : "0",
        "minimum_orbit_intersection" : ".0179445",
        "jupiter_tisserand_invariant" : "5.566",
        "epoch_osculation" : "2458000.5",
        "eccentricity" : ".1073199442521597",
        "semi_major_axis" : "1.114015101565765",
        "inclination" : "13.27133880998655",
        "ascending_node_longitude" : "211.4593746941593",
        "orbital_period" : "429.4721873313424",
        "perihelion_distance" : ".994459062969663",
        "perihelion_argument" : "44.61903611767051",
        "aphelion_distance" : "1.233571140161867",
        "perihelion_time" : "2457916.670815468142",
        "mean_anomaly" : "70.26882606529705",
        "mean_motion" : ".8382382156967387",
        "equinox" : "J2000"
      }
    } ]
  }
}